{
  "type": "FeatureCollection",
  "features": [
    {
      "type": "Feature",
      "properties": {
        "norad_id": 19071,
        "name": "OSCAR 32",
        "group": "nnss",
        "lat": -32.21648977474636,
        "lon": 16.946052538985494,
        "alt_km": 1302.838116807081,
        "timestamp": "2025-12-19T18:58:41.856653+00:00",
        "meta_object_name": "OSCAR 32",
        "meta_object_id": "1988-033B",
        "meta_epoch": "2025-12-19T03:11:49.262784",
        "meta_mean_motion": 13.27954999,
        "meta_eccentricity": 0.01888457,
        "meta_inclination": 90.3211,
        "meta_ra_of_asc_node": 16.7231,
        "meta_arg_of_pericenter": 149.0701,
        "meta_mean_anomaly": 277.1442,
        "meta_ephemeris_type": 0,
        "meta_classification_type": "U",
        "meta_norad_cat_id": 19071,
        "meta_element_set_no": 999,
        "meta_rev_at_epoch": 82350,
        "meta_bstar": 0.0001634943,
        "meta_mean_motion_dot": 9.1e-07,
        "meta_mean_motion_ddot": 0,
        "tle_line1": "1 19071U 88033B   25353.13320906  .00000091  00000+0  16349-3 0  9997",
        "tle_line2": "2 19071  90.3211  16.7231 0188845 149.0701 277.1442 13.27954999823505"
      },
      "geometry": {
        "type": "Point",
        "coordinates": [
          16.946052538985494,
          -32.21648977474636
        ]
      }
    },
    {
      "type": "Feature",
      "properties": {
        "norad_id": 19223,
        "name": "NOVA 2",
        "group": "nnss",
        "lat": 38.076732904093525,
        "lon": 78.27393305378683,
        "alt_km": 1153.4839995768534,
        "timestamp": "2025-12-19T18:58:41.856675+00:00",
        "meta_object_name": "NOVA 2",
        "meta_object_id": "1988-052A",
        "meta_epoch": "2025-12-19T06:21:05.311584",
        "meta_mean_motion": 13.22936436,
        "meta_eccentricity": 0.00300327,
        "meta_inclination": 89.987,
        "meta_ra_of_asc_node": 78.2644,
        "meta_arg_of_pericenter": 358.9404,
        "meta_mean_anomaly": 54.7754,
        "meta_ephemeris_type": 0,
        "meta_classification_type": "U",
        "meta_norad_cat_id": 19223,
        "meta_element_set_no": 999,
        "meta_rev_at_epoch": 81034,
        "meta_bstar": 0.00011474008,
        "meta_mean_motion_dot": 5.7e-07,
        "meta_mean_motion_ddot": 0,
        "tle_line1": "1 19223U 88052A   25353.26464481  .00000057  00000+0  11474-3 0  9994",
        "tle_line2": "2 19223  89.9870  78.2644 0030032 358.9404  54.7754 13.22936436810349"
      },
      "geometry": {
        "type": "Point",
        "coordinates": [
          78.27393305378683,
          38.076732904093525
        ]
      }
    },
    {
      "type": "Feature",
      "properties": {
        "norad_id": 19419,
        "name": "OSCAR 25",
        "group": "nnss",
        "lat": -73.73936210895393,
        "lon": -159.84962607667853,
        "alt_km": 1044.349637770476,
        "timestamp": "2025-12-19T18:58:41.856690+00:00",
        "meta_object_name": "OSCAR 25",
        "meta_object_id": "1988-074A",
        "meta_epoch": "2025-12-19T03:44:47.606784",
        "meta_mean_motion": 13.4262451,
        "meta_eccentricity": 0.00947802,
        "meta_inclination": 90.0341,
        "meta_ra_of_asc_node": 20.2652,
        "meta_arg_of_pericenter": 227.2545,
        "meta_mean_anomaly": 200.1746,
        "meta_ephemeris_type": 0,
        "meta_classification_type": "U",
        "meta_norad_cat_id": 19419,
        "meta_element_set_no": 999,
        "meta_rev_at_epoch": 82726,
        "meta_bstar": 0.00015947183,
        "meta_mean_motion_dot": 1.01e-06,
        "meta_mean_motion_ddot": 0,
        "tle_line1": "1 19419U 88074A   25353.15610656  .00000101  00000+0  15947-3 0  9999",
        "tle_line2": "2 19419  90.0341  20.2652 0094780 227.2545 200.1746 13.42624510827268"
      },
      "geometry": {
        "type": "Point",
        "coordinates": [
          -159.84962607667853,
          -73.73936210895393
        ]
      }
    },
    {
      "type": "Feature",
      "properties": {
        "norad_id": 19420,
        "name": "OSCAR 31",
        "group": "nnss",
        "lat": 45.0055316594232,
        "lon": -159.34600961946717,
        "alt_km": 1088.721839096408,
        "timestamp": "2025-12-19T18:58:41.856701+00:00",
        "meta_object_name": "OSCAR 31",
        "meta_object_id": "1988-074B",
        "meta_epoch": "2025-12-19T04:19:51.592800",
        "meta_mean_motion": 13.42585711,
        "meta_eccentricity": 0.00931406,
        "meta_inclination": 90.0356,
        "meta_ra_of_asc_node": 20.6162,
        "meta_arg_of_pericenter": 221.3224,
        "meta_mean_anomaly": 206.6129,
        "meta_ephemeris_type": 0,
        "meta_classification_type": "U",
        "meta_norad_cat_id": 19420,
        "meta_element_set_no": 999,
        "meta_rev_at_epoch": 82737,
        "meta_bstar": 0.00015293711,
        "meta_mean_motion_dot": 9.7e-07,
        "meta_mean_motion_ddot": 0,
        "tle_line1": "1 19420U 88074B   25353.18045825  .00000097  00000+0  15294-3 0  9993",
        "tle_line2": "2 19420  90.0356  20.6162 0093140 221.3224 206.6129 13.42585711827371"
      },
      "geometry": {
        "type": "Point",
        "coordinates": [
          -159.34600961946717,
          45.0055316594232
        ]
      }
    }
  ]
}